     2              NAVIGATION DATA                         RINEX VERSION / TYPE
CCRINEXN V1.6.0 UX  CDDIS               25-NOV-21 23:31     PGM / RUN BY / DATE 
IGS BROADCAST EPHEMERIS FILE                                COMMENT             
    0.1118D-07 -0.1490D-07 -0.5960D-07  0.1192D-06          ION ALPHA           
    0.9830D+05 -0.1147D+06 -0.1966D+06  0.7209D+06          ION BETA            
    0.931322574615D-09-0.266453525910D-14   405504      132 DELTA-UTC: A0,A1,T,W
    18                                                      LEAP SECONDS        
                                                            END OF HEADER       
18 21 11 25 14  0  0.0 0.290035270155D-03-0.613908923697D-11 0.000000000000D+00
    0.118000000000D+03-0.284687500000D+02 0.438411118726D-08-0.660782835435D+00
   -0.150315463543D-05 0.208015425596D-02 0.279955565929D-05 0.515363968468D+04
    0.396000000000D+06 0.745058059692D-08-0.400721766870D+00-0.316649675369D-07
    0.970164977208D+00 0.328437500000D+03 0.306525020633D+01-0.823605735056D-08
    0.792890169915D-10 0.100000000000D+01 0.218500000000D+04 0.000000000000D+00
    0.200000000000D+01 0.000000000000D+00-0.838190317154D-08 0.374000000000D+03
    0.388818000000D+06 0.400000000000D+01 0.000000000000D+00 0.000000000000D+00
